QIANFAN-81              
1 63167U 25046J   25293.60759662  .00000221  00000+0  32414-3 0  9993
2 63167  88.9786 325.3740 0012629 274.4537  85.5172 13.50988433 40317
QIANFAN-82              
1 63168U 25046K   25293.64082156  .00000188  00000+0  27349-3 0  9998
2 63168  88.9786 325.4142 0010791 283.8441  76.1509 13.50970588 40302
QIANFAN-83              
1 63169U 25046L   25293.65547527  .00000209  00000+0  25557-3 0  9991
2 63169  88.9786 325.2932 0012012 269.7221  90.2560 13.61965141 40377
QIANFAN-84              
1 63170U 25046M   25293.66910362  .00000145  00000+0  20577-3 0  9991
2 63170  88.9786 325.5442 0013745 279.2623  80.6974 13.50987519 40232
QIANFAN-85              
1 63171U 25046N   25293.66550390  .00000199  00000+0  29059-3 0  9996
2 63171  88.9785 325.4165 0011139 282.4095  77.5810 13.50973662 40303
QIANFAN-86              
1 63172U 25046P   25293.59969897  .00000212  00000+0  31064-3 0  9990
2 63172  88.9788 325.2841 0009040 288.2199  71.7967 13.50970606 40374
QIANFAN-87              
1 63173U 25046Q   25293.64492646  .00000171  00000+0  24578-3 0  9996
2 63173  88.9778 325.3932 0009670 281.9484  78.0583 13.50968686 40315
QIANFAN-88              
1 63174U 25046R   25293.66141385  .00000187  00000+0  27130-3 0  9994
2 63174  88.9786 325.3446 0010144 291.4772  68.5297 13.50969792 40347
